H1 CPF 01  gfz 2021 11 15 13  8192 terrasarx 
H2 0702601  6201 31698    2021 11 15 12 59 42 2021 11 20 00 00 42   120 1 1  0 0 0
H9
10 0 59534  59742.000000  0    1260180.359   -453128.429   6746506.844
10 0 59534  59862.000000  0     409998.578   -798141.323   6819190.700
10 0 59534  59982.000000  0    -453118.612  -1114238.327   6772072.242
10 0 59534  60102.000000  0   -1313560.182  -1395814.389   6605974.687
10 0 59534  60222.000000  0   -2155667.832  -1638137.655   6323796.668
10 0 59534  60342.000000  0   -2964018.565  -1837428.207   5930464.713
10 0 59534  60462.000000  0   -3723707.977  -1990917.305   5432855.596
10 0 59534  60582.000000  0   -4420630.376  -2096886.309   4839682.339
10 0 59534  60702.000000  0   -5041746.651  -2154682.991   4161346.425
10 0 59534  60822.000000  0   -5575335.312  -2164714.262   3409758.578
10 0 59534  60942.000000  0   -6011221.398  -2128415.823   2598132.041
10 0 59534  61062.000000  0   -6340979.718  -2048200.696   1740751.028
10 0 59534  61182.000000  0   -6558107.652  -1927386.773    852714.867
10 0 59534  61302.000000  0   -6658158.239  -1770103.805    -50335.594
10 0 59534  61422.000000  0   -6638833.576  -1581182.837   -952501.790
10 0 59534  61542.000000  0   -6500034.035  -1366031.082  -1837916.898
10 0 59534  61662.000000  0   -6243862.767  -1130495.973  -2691032.795
10 0 59534  61782.000000  0   -5874586.354   -880722.170  -3496898.779
10 0 59534  61902.000000  0   -5398553.112   -623004.189  -4241426.533
10 0 59534  62022.000000  0   -4824071.702   -363638.447  -4911635.663
10 0 59534  62142.000000  0   -4161253.520   -108779.144  -5495875.371
10 0 59534  62262.000000  0   -3421823.038    135698.771  -5984019.114
10 0 59534  62382.000000  0   -2618901.550    364327.067  -6367628.520
10 0 59534  62502.000000  0   -1766770.507    572159.049  -6640087.182
10 0 59534  62622.000000  0    -880616.834    754869.844  -6796704.316
10 0 59534  62742.000000  0      23734.474    908842.020  -6834785.908
10 0 59534  62862.000000  0     930095.556   1031233.904  -6753675.249
10 0 59534  62982.000000  0    1822198.188   1120030.101  -6554765.841
10 0 59534  63102.000000  0    2683980.425   1174074.651  -6241480.430
10 0 59534  63222.000000  0    3499871.206   1193085.239  -5819217.804
10 0 59534  63342.000000  0    4255068.156   1177648.093  -5295268.209
10 0 59534  63462.000000  0    4935806.776   1129194.046  -4678699.560
10 0 59534  63582.000000  0    5529616.735   1049956.278  -3980211.545
10 0 59534  63702.000000  0    6025558.196    942909.735  -3211959.295
10 0 59534  63822.000000  0    6414433.833    811693.256  -2387349.518
10 0 59534  63942.000000  0    6688972.467    660516.361  -1520810.671
10 0 59534  64062.000000  0    6843977.668    494051.883   -627539.442
10 0 59534  64182.000000  0    6876435.735    317317.164    276769.892
10 0 59534  64302.000000  0    6785581.814    135547.631   1176207.149
10 0 59534  64422.000000  0    6572921.847    -45935.962   2054934.587
10 0 59534  64542.000000  0    6242207.809   -221861.713   2897475.549
10 0 59534  64662.000000  0    5799366.774   -387139.536   3688995.279
10 0 59534  64782.000000  0    5252386.637   -536988.392   4415567.146
10 0 59534  64902.000000  0    4611164.110   -667055.306   5064421.155
10 0 59534  65022.000000  0    3887314.311   -773523.987   5624169.031
10 0 59534  65142.000000  0    3093950.172   -853208.425   6085000.287
10 0 59534  65262.000000  0    2245437.151   -903631.560   6438849.255
10 0 59534  65382.000000  0    1357128.108   -923086.957   6679530.516
10 0 59534  65502.000000  0     445081.342   -910682.573   6802842.147
10 0 59534  65622.000000  0    -474231.607   -866365.147   6806633.324
10 0 59534  65742.000000  0   -1384222.607   -790925.770   6690838.302
10 0 59534  65862.000000  0   -2268484.676   -685985.811   6457477.095
10 0 59534  65982.000000  0   -3111086.106   -553963.516   6110622.680
10 0 59534  66102.000000  0   -3896858.178   -398021.809   5656335.802
10 0 59534  66222.000000  0   -4611672.346   -221998.546   5102565.819
10 0 59534  66342.000000  0   -5242700.896    -30320.038   4459017.305
10 0 59534  66462.000000  0   -5778655.334    172100.308   3736984.368
10 0 59534  66582.000000  0   -6209997.204    379976.664   2949155.148
10 0 59534  66702.000000  0   -6529118.064    587776.358   2109390.047
10 0 59534  66822.000000  0   -6730483.410    789853.413   1232475.184
10 0 59534  66942.000000  0   -6810736.632    980586.173    333856.382
10 0 59534  67062.000000  0   -6768759.249   1154516.257   -570641.382
10 0 59534  67182.000000  0   -6605684.803   1306484.886  -1465102.089
10 0 59534  67302.000000  0   -6324867.541   1431762.530  -2333806.380
10 0 59534  67422.000000  0   -5931808.784   1526170.609  -3161514.972
10 0 59534  67542.000000  0   -5434038.576   1586190.102  -3933742.123
10 0 59534  67662.000000  0   -4840958.474   1609054.314  -4637009.550
10 0 59534  67782.000000  0   -4163651.515   1592825.030  -5259077.943
10 0 59534  67902.000000  0   -3414664.139   1536450.026  -5789152.163
10 0 59534  68022.000000  0   -2607766.518   1439801.129  -6218058.617
10 0 59534  68142.000000  0   -1757695.065   1303692.124  -6538393.480
10 0 59534  68262.000000  0    -879881.517   1129877.323  -6744638.626
10 0 59534  68382.000000  0       9823.856    921029.775  -6833245.634
10 0 59534  68502.000000  0     895431.186    680701.077  -6802689.820
10 0 59534  68622.000000  0    1761091.489    413262.192  -6653496.194
10 0 59534  68742.000000  0    2591374.911    123825.748  -6388231.040
10 0 59534  68862.000000  0    3371540.438   -181848.068  -6011462.741
10 0 59534  68982.000000  0    4087794.904   -497461.818  -5529690.258
10 0 59534  69102.000000  0    4727535.995   -816305.085  -4951241.895
10 0 59534  69222.000000  0    5279579.185  -1131391.661  -4286143.725
10 0 59534  69342.000000  0    5734361.373  -1435606.696  -3545955.866
10 0 59534  69462.000000  0    6084116.899  -1721861.055  -2743579.858
10 0 59534  69582.000000  0    6323022.030  -1983249.924  -1893038.977
10 0 59534  69702.000000  0    6447303.487  -2213211.826  -1009234.438
10 0 59534  69822.000000  0    6455307.840  -2405683.576   -107682.362
10 0 59534  69942.000000  0    6347529.581  -2555247.946    795763.952
10 0 59534  70062.000000  0    6126596.192  -2657269.321   1685200.814
10 0 59534  70182.000000  0    5797209.422  -2708014.225   2544963.652
10 0 59534  70302.000000  0    5366044.576  -2704753.553   3359911.461
10 0 59534  70422.000000  0    4841609.838  -2645842.816   4115700.738
10 0 59534  70542.000000  0    4234071.517  -2530779.076   4799040.686
10 0 59534  70662.000000  0    3555050.412  -2360234.947   5397929.188
10 0 59534  70782.000000  0    2817389.926  -2136067.319   5901862.953
10 0 59534  70902.000000  0    2034905.758  -1861300.451   6302016.816
10 0 59534  71022.000000  0    1222122.067  -1540085.585   6591392.579
10 0 59534  71142.000000  0     393998.399  -1177637.369   6764935.476
10 0 59534  71262.000000  0    -434347.072   -780147.857   6819616.615
10 0 59534  71382.000000  0   -1247912.747   -354680.079   6754481.573
10 0 59534  71502.000000  0   -2032083.856     90957.111   6570665.890
10 0 59534  71622.000000  0   -2772893.819    548351.788   6271376.766
10 0 59534  71742.000000  0   -3457273.220   1008646.666   5861841.242
10 0 59534  71862.000000  0   -4073282.961   1462709.251   5349221.151
10 0 59534  71982.000000  0   -4610328.020   1901311.950   4742494.402
10 0 59534  72102.000000  0   -5059346.846   2315319.349   4052302.887
10 0 59534  72222.000000  0   -5412971.716   2695878.530   3290769.168
10 0 59534  72342.000000  0   -5665656.882   3034607.684   2471285.194
10 0 59534  72462.000000  0   -5813772.611   3323779.587   1608276.343
10 0 59534  72582.000000  0   -5855662.145   3556495.901    716942.843
10 0 59534  72702.000000  0   -5791657.174   3726845.938   -187015.731
10 0 59534  72822.000000  0   -5624053.686   3830046.259  -1087685.091
10 0 59534  72942.000000  0   -5357048.767   3862558.735  -1969225.420
10 0 59534  73062.000000  0   -4996637.878   3822182.504  -2816159.604
10 0 59534  73182.000000  0   -4550476.276   3708117.707  -3613650.829
10 0 59534  73302.000000  0   -4027709.231   3520999.850  -4347764.625
10 0 59534  73422.000000  0   -3438777.160   3262905.401  -5005709.938
10 0 59534  73542.000000  0   -2795199.982   2937328.460  -5576055.391
10 0 59534  73662.000000  0   -2109348.145   2549130.823  -6048918.919
10 0 59534  73782.000000  0   -1394201.605   2104465.523  -6416129.395
10 0 59534  73902.000000  0    -663103.782   1610675.650  -6671355.440
10 0 59534  74022.000000  0      70484.165   1076172.143  -6810203.860
10 0 59534  74142.000000  0     793225.360    510291.629  -6830286.754
10 0 59534  74262.000000  0    1492144.228    -76863.303  -6731259.937
10 0 59534  74382.000000  0    2154854.806   -674600.889  -6514827.079
10 0 59534  74502.000000  0    2769774.906  -1271829.667  -6184713.465
10 0 59534  74622.000000  0    3326326.101  -1857259.107  -5746608.569
10 0 59534  74742.000000  0    3815115.489  -2419608.193  -5208078.863
10 0 59534  74862.000000  0    4228098.580  -2947821.696  -4578448.569
10 0 59534  74982.000000  0    4558716.135  -3431287.662  -3868647.863
10 0 59534  75102.000000  0    4802004.528  -3860051.256  -3091033.056
10 0 59534  75222.000000  0    4954678.167  -4225022.366  -2259178.771
10 0 59534  75342.000000  0    5015179.721  -4518171.012  -1387643.992
10 0 59534  75462.000000  0    4983696.909  -4732706.306   -491716.756
10 0 59534  75582.000000  0    4862143.369  -4863233.857    412858.717
10 0 59534  75702.000000  0    4654104.318  -4905886.289   1310165.985
10 0 59534  75822.000000  0    4364748.241  -4858423.115   2184405.701
10 0 59534  75942.000000  0    4000706.007  -4720297.870   3020182.082
10 0 59534  76062.000000  0    3569922.220  -4492691.192   3802781.586
10 0 59534  76182.000000  0    3081480.762  -4178508.329   4518437.645
99
